STARLINK-34368          
1 64311U 25123W   25310.56988345  .00004086  00000+0  35013-3 0  9999
2 64311  70.0009 144.9872 0002400 275.0739  85.0146 14.98323881 23171
STARLINK-34384          
1 64312U 25123X   25310.49476065  .00005383  00000+0  45844-3 0  9997
2 64312  69.9995 145.1356 0002693 276.6688  83.4164 14.98345330 23161
STARLINK-34358          
1 64313U 25123Y   25310.55317184  .00008634  00000+0  73018-3 0  9997
2 64313  70.0019 144.9368 0002856 274.7454  85.3379 14.98346916 23174
STARLINK-34354          
1 64314U 25123Z   25310.54481394  .00009284  00000+0  78442-3 0  9990
2 64314  69.9995 144.9064 0001306 286.4078  73.6938 14.98351664 23176
STARLINK-34387          
1 64315U 25123AA  25310.53648464  .00006965  00000+0  59058-3 0  9998
2 64315  69.9980 144.8753 0002619 265.7825  94.3035 14.98354229 23171
STARLINK-33590          
1 64316U 25123AB  25310.27795352  .00005440  00000+0  46328-3 0  9992
2 64316  69.9972 145.5768 0001285 280.0504  80.0510 14.98338080 23132
STARLINK-11736 [DTC]    
1 64317U 25124A   25310.67244172  .00347853  00000+0  26043-2 0  9995
2 64317  43.0002  51.0241 0001494 286.9124  73.1580 15.70823450 23481
STARLINK-11673 [DTC]    
1 64318U 25124B   25310.58761876  .00331641  00000+0  24746-2 0  9997
2 64318  43.0015  51.2345 0000904 237.7661 122.3119 15.70951960 23470
STARLINK-11671 [DTC]    
1 64319U 25124C   25310.70416727  .00167941  00000+0  12821-2 0  9995
2 64319  43.0009  50.3825 0001556 268.7046  91.3644 15.70913593 23492
STARLINK-11594 [DTC]    
1 64320U 25124D   25310.67774765  .00303963  00000+0  22880-2 0  9994
2 64320  42.9997  51.0650 0002350 263.6463  96.4137 15.70826690 23485
STARLINK-11596 [DTC]    
1 64321U 25124E   25310.66713314  .00311847  00000+0  23348-2 0  9997
2 64321  43.0004  50.9781 0002016 291.5989  68.4664 15.70931104 23483
STARLINK-11747 [DTC]    
1 64322U 25124F   25310.65651594  .00489832  00000+0  35810-2 0  9995
2 64322  43.0010  50.8928 0002050 306.0252  54.0426 15.70969798 23483
STARLINK-11728 [DTC]    
1 64323U 25124G   25310.68824417  .00235303  00000+0  17890-2 0  9995
2 64323  43.0011  50.2527 0000563 315.8203  44.2620 15.70796630 23496
STARLINK-11696 [DTC]    
1 64324U 25124H   25310.50810554  .00069262  00000+0  53911-3 0  9998
2 64324  43.0007  51.4895 0001538 292.9720  67.0986 15.70825192 23466
STARLINK-11698 [DTC]    
1 64325U 25124J   25310.70508149  .00101863  00000+0  78659-3 0  9995
2 64325  43.0007  50.3886 0001206 293.6995  66.3746 15.70872229 23491
STARLINK-11678 [DTC]    
1 64326U 25124K   25310.66182360  .00326543  00000+0  24398-2 0  9998
2 64326  43.0010  50.9332 0001871 276.1506  83.9148 15.70935904 23480
