[{"OBJECT_NAME":"STARLINK-34368","OBJECT_ID":"2025-123W","EPOCH":"2025-11-06T13:40:37.930080","MEAN_MOTION":14.98323881,"ECCENTRICITY":0.00024,"INCLINATION":70.0009,"RA_OF_ASC_NODE":144.9872,"ARG_OF_PERICENTER":275.0739,"MEAN_ANOMALY":85.0146,"EPHEMERIS_TYPE":0,"CLASSIFICATION_TYPE":"U","NORAD_CAT_ID":64311,"ELEMENT_SET_NO":999,"REV_AT_EPOCH":2317,"BSTAR":0.00035013,"MEAN_MOTION_DOT":4.086e-5,"MEAN_MOTION_DDOT":0},{"OBJECT_NAME":"STARLINK-34384","OBJECT_ID":"2025-123X","EPOCH":"2025-11-06T11:52:27.320160","MEAN_MOTION":14.9834533,"ECCENTRICITY":0.0002693,"INCLINATION":69.9995,"RA_OF_ASC_NODE":145.1356,"ARG_OF_PERICENTER":276.6688,"MEAN_ANOMALY":83.4164,"EPHEMERIS_TYPE":0,"CLASSIFICATION_TYPE":"U","NORAD_CAT_ID":64312,"ELEMENT_SET_NO":999,"REV_AT_EPOCH":2316,"BSTAR":0.00045844,"MEAN_MOTION_DOT":5.383e-5,"MEAN_MOTION_DDOT":0},{"OBJECT_NAME":"STARLINK-34358","OBJECT_ID":"2025-123Y","EPOCH":"2025-11-06T13:16:34.046976","MEAN_MOTION":14.98346916,"ECCENTRICITY":0.0002856,"INCLINATION":70.0019,"RA_OF_ASC_NODE":144.9368,"ARG_OF_PERICENTER":274.7454,"MEAN_ANOMALY":85.3379,"EPHEMERIS_TYPE":0,"CLASSIFICATION_TYPE":"U","NORAD_CAT_ID":64313,"ELEMENT_SET_NO":999,"REV_AT_EPOCH":2317,"BSTAR":0.00073018,"MEAN_MOTION_DOT":8.634e-5,"MEAN_MOTION_DDOT":0},{"OBJECT_NAME":"STARLINK-34354","OBJECT_ID":"2025-123Z","EPOCH":"2025-11-06T13:04:31.924416","MEAN_MOTION":14.98351664,"ECCENTRICITY":0.0001306,"INCLINATION":69.9995,"RA_OF_ASC_NODE":144.9064,"ARG_OF_PERICENTER":286.4078,"MEAN_ANOMALY":73.6938,"EPHEMERIS_TYPE":0,"CLASSIFICATION_TYPE":"U","NORAD_CAT_ID":64314,"ELEMENT_SET_NO":999,"REV_AT_EPOCH":2317,"BSTAR":0.00078442,"MEAN_MOTION_DOT":9.284e-5,"MEAN_MOTION_DDOT":0},{"OBJECT_NAME":"STARLINK-34387","OBJECT_ID":"2025-123AA","EPOCH":"2025-11-06T12:52:32.272896","MEAN_MOTION":14.98354229,"ECCENTRICITY":0.0002619,"INCLINATION":69.998,"RA_OF_ASC_NODE":144.8753,"ARG_OF_PERICENTER":265.7825,"MEAN_ANOMALY":94.3035,"EPHEMERIS_TYPE":0,"CLASSIFICATION_TYPE":"U","NORAD_CAT_ID":64315,"ELEMENT_SET_NO":999,"REV_AT_EPOCH":2317,"BSTAR":0.00059058,"MEAN_MOTION_DOT":6.965e-5,"MEAN_MOTION_DDOT":0},{"OBJECT_NAME":"STARLINK-33590","OBJECT_ID":"2025-123AB","EPOCH":"2025-11-06T06:40:15.184128","MEAN_MOTION":14.9833808,"ECCENTRICITY":0.0001285,"INCLINATION":69.9972,"RA_OF_ASC_NODE":145.5768,"ARG_OF_PERICENTER":280.0504,"MEAN_ANOMALY":80.051,"EPHEMERIS_TYPE":0,"CLASSIFICATION_TYPE":"U","NORAD_CAT_ID":64316,"ELEMENT_SET_NO":999,"REV_AT_EPOCH":2313,"BSTAR":0.00046328,"MEAN_MOTION_DOT":5.44e-5,"MEAN_MOTION_DDOT":0},{"OBJECT_NAME":"STARLINK-11736 [DTC]","OBJECT_ID":"2025-124A","EPOCH":"2025-11-06T16:08:18.964608","MEAN_MOTION":15.7082345,"ECCENTRICITY":0.0001494,"INCLINATION":43.0002,"RA_OF_ASC_NODE":51.0241,"ARG_OF_PERICENTER":286.9124,"MEAN_ANOMALY":73.158,"EPHEMERIS_TYPE":0,"CLASSIFICATION_TYPE":"U","NORAD_CAT_ID":64317,"ELEMENT_SET_NO":999,"REV_AT_EPOCH":2348,"BSTAR":0.0026043,"MEAN_MOTION_DOT":0.00347853,"MEAN_MOTION_DDOT":0},{"OBJECT_NAME":"STARLINK-11673 [DTC]","OBJECT_ID":"2025-124B","EPOCH":"2025-11-06T14:06:10.260864","MEAN_MOTION":15.7095196,"ECCENTRICITY":9.04e-5,"INCLINATION":43.0015,"RA_OF_ASC_NODE":51.2345,"ARG_OF_PERICENTER":237.7661,"MEAN_ANOMALY":122.3119,"EPHEMERIS_TYPE":0,"CLASSIFICATION_TYPE":"U","NORAD_CAT_ID":64318,"ELEMENT_SET_NO":999,"REV_AT_EPOCH":2347,"BSTAR":0.0024746,"MEAN_MOTION_DOT":0.00331641,"MEAN_MOTION_DDOT":0},{"OBJECT_NAME":"STARLINK-11671 [DTC]","OBJECT_ID":"2025-124C","EPOCH":"2025-11-06T16:54:00.052128","MEAN_MOTION":15.70913593,"ECCENTRICITY":0.0001556,"INCLINATION":43.0009,"RA_OF_ASC_NODE":50.3825,"ARG_OF_PERICENTER":268.7046,"MEAN_ANOMALY":91.3644,"EPHEMERIS_TYPE":0,"CLASSIFICATION_TYPE":"U","NORAD_CAT_ID":64319,"ELEMENT_SET_NO":999,"REV_AT_EPOCH":2349,"BSTAR":0.0012821,"MEAN_MOTION_DOT":0.00167941,"MEAN_MOTION_DDOT":0},{"OBJECT_NAME":"STARLINK-11594 [DTC]","OBJECT_ID":"2025-124D","EPOCH":"2025-11-06T16:15:57.396960","MEAN_MOTION":15.7082669,"ECCENTRICITY":0.000235,"INCLINATION":42.9997,"RA_OF_ASC_NODE":51.065,"ARG_OF_PERICENTER":263.6463,"MEAN_ANOMALY":96.4137,"EPHEMERIS_TYPE":0,"CLASSIFICATION_TYPE":"U","NORAD_CAT_ID":64320,"ELEMENT_SET_NO":999,"REV_AT_EPOCH":2348,"BSTAR":0.002288,"MEAN_MOTION_DOT":0.00303963,"MEAN_MOTION_DDOT":0},{"OBJECT_NAME":"STARLINK-11596 [DTC]","OBJECT_ID":"2025-124E","EPOCH":"2025-11-06T16:00:40.303296","MEAN_MOTION":15.70931104,"ECCENTRICITY":0.0002016,"INCLINATION":43.0004,"RA_OF_ASC_NODE":50.9781,"ARG_OF_PERICENTER":291.5989,"MEAN_ANOMALY":68.4664,"EPHEMERIS_TYPE":0,"CLASSIFICATION_TYPE":"U","NORAD_CAT_ID":64321,"ELEMENT_SET_NO":999,"REV_AT_EPOCH":2348,"BSTAR":0.0023348,"MEAN_MOTION_DOT":0.00311847,"MEAN_MOTION_DDOT":0},{"OBJECT_NAME":"STARLINK-11747 [DTC]","OBJECT_ID":"2025-124F","EPOCH":"2025-11-06T15:45:22.977216","MEAN_MOTION":15.70969798,"ECCENTRICITY":0.000205,"INCLINATION":43.001,"RA_OF_ASC_NODE":50.8928,"ARG_OF_PERICENTER":306.0252,"MEAN_ANOMALY":54.0426,"EPHEMERIS_TYPE":0,"CLASSIFICATION_TYPE":"U","NORAD_CAT_ID":64322,"ELEMENT_SET_NO":999,"REV_AT_EPOCH":2348,"BSTAR":0.003581,"MEAN_MOTION_DOT":0.00489832,"MEAN_MOTION_DDOT":0},{"OBJECT_NAME":"STARLINK-11728 [DTC]","OBJECT_ID":"2025-124G","EPOCH":"2025-11-06T16:31:04.296288","MEAN_MOTION":15.7079663,"ECCENTRICITY":5.63e-5,"INCLINATION":43.0011,"RA_OF_ASC_NODE":50.2527,"ARG_OF_PERICENTER":315.8203,"MEAN_ANOMALY":44.262,"EPHEMERIS_TYPE":0,"CLASSIFICATION_TYPE":"U","NORAD_CAT_ID":64323,"ELEMENT_SET_NO":999,"REV_AT_EPOCH":2349,"BSTAR":0.001789,"MEAN_MOTION_DOT":0.00235303,"MEAN_MOTION_DDOT":0},{"OBJECT_NAME":"STARLINK-11696 [DTC]","OBJECT_ID":"2025-124H","EPOCH":"2025-11-06T12:11:40.318656","MEAN_MOTION":15.70825192,"ECCENTRICITY":0.0001538,"INCLINATION":43.0007,"RA_OF_ASC_NODE":51.4895,"ARG_OF_PERICENTER":292.972,"MEAN_ANOMALY":67.0986,"EPHEMERIS_TYPE":0,"CLASSIFICATION_TYPE":"U","NORAD_CAT_ID":64324,"ELEMENT_SET_NO":999,"REV_AT_EPOCH":2346,"BSTAR":0.00053911,"MEAN_MOTION_DOT":0.00069262,"MEAN_MOTION_DDOT":0},{"OBJECT_NAME":"STARLINK-11698 [DTC]","OBJECT_ID":"2025-124J","EPOCH":"2025-11-06T16:55:19.040736","MEAN_MOTION":15.70872229,"ECCENTRICITY":0.0001206,"INCLINATION":43.0007,"RA_OF_ASC_NODE":50.3886,"ARG_OF_PERICENTER":293.6995,"MEAN_ANOMALY":66.3746,"EPHEMERIS_TYPE":0,"CLASSIFICATION_TYPE":"U","NORAD_CAT_ID":64325,"ELEMENT_SET_NO":999,"REV_AT_EPOCH":2349,"BSTAR":0.00078659,"MEAN_MOTION_DOT":0.00101863,"MEAN_MOTION_DDOT":0},{"OBJECT_NAME":"STARLINK-11678 [DTC]","OBJECT_ID":"2025-124K","EPOCH":"2025-11-06T15:53:01.559040","MEAN_MOTION":15.70935904,"ECCENTRICITY":0.0001871,"INCLINATION":43.001,"RA_OF_ASC_NODE":50.9332,"ARG_OF_PERICENTER":276.1506,"MEAN_ANOMALY":83.9148,"EPHEMERIS_TYPE":0,"CLASSIFICATION_TYPE":"U","NORAD_CAT_ID":64326,"ELEMENT_SET_NO":999,"REV_AT_EPOCH":2348,"BSTAR":0.0024398,"MEAN_MOTION_DOT":0.00326543,"MEAN_MOTION_DDOT":0}]
